NAVSTAR 74 (USA 262)    
1 40730U 15033A   26156.25475302 -.00000026  00000+0  00000+0 0  9991
2 40730  53.9920 267.5786 0115058  30.1861 330.4960  2.00556964 79754
BEIDOU-3S M2S           
1 40748U 15037A   26153.28873813 -.00000070  00000+0  00000+0 0  9992
2 40748  54.8844 302.5583 0007848 262.7057  97.1823  1.86232274 73847
BEIDOU-3S M1S           
1 40749U 15037B   26154.57173103 -.00000062  00000+0  00000+0 0  9992
2 40749  54.8802 302.5027 0003703  59.9652 300.0537  1.86254987 73874
GSAT0205 (GALILEO 9)    
1 40889U 15045A   26144.30399159 -.00000014  00000+0  00000+0 0  9994
2 40889  54.9357 222.4171 0006405 263.0112  96.9692  1.67409242 66562
GSAT0206 (GALILEO 10)   
1 40890U 15045B   26156.13904875  .00000041  00000+0  00000+0 0  9996
2 40890  54.9479 221.9374 0001753 334.1695  25.9104  1.70473949 66834
NAVSTAR 75 (USA 265)    
1 41019U 15062A   26156.31132485 -.00000068  00000+0  00000+0 0  9999
2 41019  56.9514  31.2688 0111582 231.1680 127.8846  2.00567113 77593
GSAT0209 (GALILEO 12)   
1 41174U 15079A   26156.30703758  .00000019  00000+0  00000+0 0  9990
2 41174  55.8207 101.5878 0005441 339.2511  20.6937  1.70473904 64578
GSAT0208 (GALILEO 11)   
1 41175U 15079B   26154.18097635  .00000008  00000+0  00000+0 0  9993
2 41175  55.8180 101.6428 0004856 341.4145  18.5225  1.70473818 64950
IRNSS-1E                
1 41241U 16003A   26156.65653389 -.00000296  00000+0  00000+0 0  9993
2 41241  33.2101  59.9173 0017866 179.8467   2.4219  1.00270491 37965
NAVSTAR 76 (USA 266)    
1 41328U 16007A   26155.90285179  .00000004  00000+0  00000+0 0  9994
2 41328  55.5169  89.9466 0096310 247.3906 111.5783  2.00552419 75593
COSMOS 2514 [GLONASS-M] 
1 41330U 16008A   26156.08441309 -.00000033  00000+0  00000+0 0  9990
2 41330  65.0294 313.4219 0010831 197.3152 162.6408  2.13102607 80369
BEIDOU-2 IGSO-6         
1 41434U 16021A   26156.65254722 -.00000145  00000+0  00000+0 0  9998
2 41434  60.2092  38.1555 0057227 231.4567 312.9233  1.00261992 37367
GSAT0211 (GALILEO 14)   
1 41549U 16030A   26156.65135299  .00000041  00000+0  00000+0 0  9996
2 41549  55.0990 222.0126 0002678 329.1455  30.9257  1.70474112 62472
GSAT0210 (GALILEO 13)   
1 41550U 16030B   26155.73546720  .00000041  00000+0  00000+0 0  9991
2 41550  55.0978 222.0357 0003015 229.1415 130.9222  1.70474170 62452
EUTELSAT 117 WEST B     
1 41589U 16038B   26156.61132243  .00000001  00000+0  00000+0 0  9996
2 41589   0.0104 144.4859 0000223 204.6600   7.9647  1.00270561 36547
GSAT0212 (GALILEO 16)   
1 41860U 16069B   26154.10735617  .00000006  00000+0  00000+0 0  9993
2 41860  55.4882 101.4709 0004693 352.8898   7.0579  1.70474020 59412
GSAT0213 (GALILEO 17)   
1 41861U 16069C   26156.23439190  .00000017  00000+0  00000+0 0  9999
2 41861  55.4909 101.4200 0005209 311.1245  48.7972  1.70474348 59318
GSAT0214 (GALILEO 18)   
1 41862U 16069D   26155.20740261  .00000012  00000+0  00000+0 0  9995
2 41862  55.4897 101.4409 0004328 318.0236  41.9042  1.70474030 59426
QZS-2 (MICHIBIKI-2)     
1 42738U 17028A   26156.52533118 -.00000153  00000+0  00000+0 0  9998
2 42738  39.4451 243.3264 0760589 269.1343  71.7999  1.00287038  7502
COSMOS 2522 [GLONASS-M] 
1 42939U 17055A   26153.10670400  .00000070  00000+0  00000+0 0  9995
2 42939  64.0774 192.3978 0010513 239.6203 120.3566  2.13102000 67657
QZS-4 (MICHIBIKI-4)     
1 42965U 17062A   26155.37249061 -.00000321  00000+0  00000+0 0  9998
2 42965  40.1160 343.6465 0744830 271.5298 269.7386  1.00255482 31676
BEIDOU-3 M1             
1 43001U 17069A   26156.32000248 -.00000038  00000+0  00000+0 0  9990
2 43001  56.6820  63.4758 0010811 323.5949  36.3588  1.86231618 58389
BEIDOU-3 M2             
1 43002U 17069B   26156.25871933 -.00000038  00000+0  00000+0 0  9990
2 43002  56.6818  63.5130 0009405 347.9900  12.0146  1.86231067 58374
