OBJECT_NAME,OBJECT_ID,EPOCH,MEAN_MOTION,ECCENTRICITY,INCLINATION,RA_OF_ASC_NODE,ARG_OF_PERICENTER,MEAN_ANOMALY,EPHEMERIS_TYPE,CLASSIFICATION_TYPE,NORAD_CAT_ID,ELEMENT_SET_NO,REV_AT_EPOCH,BSTAR,MEAN_MOTION_DOT,MEAN_MOTION_DDOT
GPS BIIF-10 (PRN 08),2015-033A,2026-06-05T06:06:50.660928,2.00556964,.0115058,53.9920,267.5786,30.1861,330.4960,0,U,40730,999,7975,0,-.26E-6,0
BEIDOU-3S M2S (C58),2015-037A,2026-06-02T06:55:46.974432,1.86232274,.00078489,54.8844,302.5583,262.7057,97.1823,0,U,40748,999,7384,0,-.7E-6,0
BEIDOU-3S M1S (C57),2015-037B,2026-06-03T13:43:17.560992,1.86254987,.00037034,54.8802,302.5027,59.9652,300.0537,0,U,40749,999,7387,0,-.62E-6,0
GSAT0205 (GALILEO 9),2015-045A,2026-05-24T07:17:44.873376,1.67409242,.00064058,54.9357,222.4171,263.0112,96.9692,0,U,40889,999,6656,0,-.14E-6,0
GSAT0206 (GALILEO 10),2015-045B,2026-06-05T03:20:13.812000,1.70473949,.0001753,54.9479,221.9374,334.1695,25.9104,0,U,40890,999,6683,0,.41E-6,0
GPS BIIF-11 (PRN 10),2015-062A,2026-06-05T07:28:18.467040,2.00567113,.0111582,56.9514,31.2688,231.1680,127.8846,0,U,41019,999,7759,0,-.68E-6,0
GSAT0209 (GALILEO 12),2015-079A,2026-06-05T07:22:08.046912,1.70473904,.0005441,55.8207,101.5878,339.2511,20.6937,0,U,41174,999,6457,0,.19E-6,0
GSAT0208 (GALILEO 11),2015-079B,2026-06-03T04:20:36.356640,1.70473818,.00048566,55.8180,101.6428,341.4145,18.5225,0,U,41175,999,6495,0,.8E-7,0
IRNSS-1E,2016-003A,2026-06-05T15:45:24.528096,1.00270491,.0017866,33.2101,59.9173,179.8467,2.4219,0,U,41241,999,3796,0,-.296E-5,0
GPS BIIF-12 (PRN 32),2016-007A,2026-06-04T21:40:06.394656,2.00552419,.00963109,55.5169,89.9466,247.3906,111.5783,0,U,41328,999,7559,0,.4E-7,0
COSMOS 2514 (751),2016-008A,2026-06-05T02:01:33.290976,2.13102607,.0010831,65.0294,313.4219,197.3152,162.6408,0,U,41330,999,8036,0,-.33E-6,0
BEIDOU-2 IGSO-6 (C13),2016-021A,2026-06-05T15:39:40.079808,1.00261992,.0057227,60.2092,38.1555,231.4567,312.9233,0,U,41434,999,3736,0,-.145E-5,0
GSAT0211 (GALILEO 14),2016-030A,2026-06-05T15:37:56.898336,1.70474112,.0002678,55.0990,222.0126,329.1455,30.9257,0,U,41549,999,6247,0,.41E-6,0
GSAT0210 (GALILEO 13),2016-030B,2026-06-04T17:39:04.366080,1.70474170,.0003015,55.0978,222.0357,229.1415,130.9222,0,U,41550,999,6245,0,.41E-6,0
EUTELSAT 117 WEST B (WAAS/PRN 131),2016-038B,2026-06-05T14:40:18.257952,1.00270561,.0000223,0.0104,144.4859,204.6600,7.9647,0,U,41589,999,3654,0,.1E-7,0
GSAT0212 (GALILEO 16),2016-069B,2026-06-03T02:34:35.573088,1.70474020,.00046934,55.4882,101.4709,352.8898,7.0579,0,U,41860,999,5941,0,.6E-7,0
GSAT0213 (GALILEO 17),2016-069C,2026-06-05T05:37:31.460160,1.70474348,.0005209,55.4909,101.4200,311.1245,48.7972,0,U,41861,999,5931,0,.17E-6,0
GSAT0214 (GALILEO 18),2016-069D,2026-06-04T04:58:39.585504,1.70474030,.00043281,55.4897,101.4409,318.0236,41.9042,0,U,41862,999,5942,0,.12E-6,0
QZS-2 (QZSS/PRN 194),2017-028A,2026-06-05T12:36:28.613952,1.00287038,.0760589,39.4451,243.3264,269.1343,71.7999,0,U,42738,999,750,0,-.153E-5,0
COSMOS 2522 (752),2017-055A,2026-06-02T02:33:39.225600,2.13102000,.00105132,64.0774,192.3978,239.6203,120.3566,0,U,42939,999,6765,0,.7E-6,0
QZS-4 (QZSS/PRN 195),2017-062A,2026-06-04T08:56:23.188704,1.00255482,.074483,40.1160,343.6465,271.5298,269.7386,0,U,42965,999,3167,0,-.321E-5,0
BEIDOU-3 M1 (C19),2017-069A,2026-06-05T07:40:48.214272,1.86231618,.0010811,56.6820,63.4758,323.5949,36.3588,0,U,43001,999,5838,0,-.38E-6,0
BEIDOU-3 M2 (C20),2017-069B,2026-06-05T06:12:33.350112,1.86231067,.0009405,56.6818,63.5130,347.9900,12.0146,0,U,43002,999,5837,0,-.38E-6,0
